{"fetched_at":"2026-07-11T09:24:35.159Z","source":"https://celestrak.org/NORAD/elements/gp.php?NAME=RADARSAT&FORMAT=JSON","constellation":"radarsat-2","records":[{"OBJECT_NAME":"RADARSAT-2","OBJECT_ID":"2007-061A","EPOCH":"2026-07-10T19:52:11.411904","CLASSIFICATION_TYPE":"U","MEAN_MOTION":14.29982263,"ECCENTRICITY":0.0001323,"INCLINATION":98.5786,"RA_OF_ASC_NODE":198.4222,"ARG_OF_PERICENTER":84.4428,"MEAN_ANOMALY":275.6905,"EPHEMERIS_TYPE":0,"NORAD_CAT_ID":32382,"ELEMENT_SET_NO":999,"REV_AT_EPOCH":96933,"BSTAR":-0.0000012851,"MEAN_MOTION_DOT":-4.7e-7,"MEAN_MOTION_DDOT":0}]}
